{"type":"Feature","properties":{"MUN":"DEAL BORO","COUNTY":"MONMOUTH","MUN_LABEL":"Deal Borough","MUN_TYPE":"Borough","NAME":"Deal Borough","GNIS_NAME":"Borough of Deal"},"geometry":{"type":"Polygon","coordinates":[[[-73.9878059,40.2603529],[-73.9878007,40.2603453],[-73.9877398,40.260324],[-73.9877125,40.2603004],[-73.9877005,40.2602677],[-73.9877222,40.2602303],[-73.9877715,40.2601674],[-73.9878826,40.2600088],[-73.9879357,40.259857],[-73.9880195,40.2596679],[-73.9880544,40.2594903],[-73.9880756,40.2593091],[-73.9881518,40.2587235],[-73.9881755,40.2586242],[-73.988179,40.2585534],[-73.9881743,40.2583692],[-73.9881476,40.2582732],[-73.9880842,40.2581793],[-73.9880237,40.2580949],[-73.9879661,40.2580525],[-73.9878688,40.2579959],[-73.9878018,40.2579676],[-73.9877562,40.2579416],[-73.9877503,40.2579229],[-73.9877566,40.2578949],[-73.9878209,40.2578741],[-73.9878821,40.257844],[-73.9879897,40.2577555],[-73.9881064,40.2576602],[-73.988168,40.2575856],[-73.9882206,40.2574993],[-73.9882582,40.2573708],[-73.9882611,40.2571895],[-73.9882678,40.257103],[-73.9882807,40.2570165],[-73.9883087,40.2569441],[-73.9883733,40.2568766],[-73.9885089,40.2567181],[-73.9886078,40.2565548],[-73.9887344,40.2563659],[-73.9889255,40.2559188],[-73.9890505,40.2555381],[-73.9890979,40.2554345],[-73.9891007,40.2554219],[-73.9891263,40.2553723],[-73.9891559,40.2553149],[-73.9891895,40.2552658],[-73.9893045,40.255048],[-73.9893484,40.2548961],[-73.989406,40.2547481],[-73.9894574,40.2546159],[-73.9894707,40.2545619],[-73.9895348,40.2543013],[-73.9895838,40.254041],[-73.9896284,40.2538026],[-73.9896814,40.2536485],[-73.9896944,40.2535503],[-73.9896918,40.2534825],[-73.9896737,40.2534566],[-73.9896068,40.2534189],[-73.9895429,40.2533929],[-73.9894394,40.253348],[-73.9893543,40.2532985],[-73.9892906,40.2532468],[-73.9892848,40.2532093],[-73.9892972,40.2531813],[-73.9893587,40.2531278],[-73.9895185,40.2529788],[-73.9896413,40.2528951],[-73.9897754,40.2527191],[-73.9900166,40.2523178],[-73.990116,40.2520867],[-73.990214,40.2518403],[-73.9902715,40.2514967],[-73.9902623,40.2513014],[-73.9902387,40.2511984],[-73.9902057,40.251114],[-73.9901545,40.2510226],[-73.9901184,40.2509546],[-73.9901096,40.2509031],[-73.9901252,40.2508634],[-73.9901712,40.2508261],[-73.9902172,40.250803],[-73.9903338,40.2507263],[-73.9904382,40.2506378],[-73.9905061,40.2505469],[-73.9908508,40.2500103],[-73.9910213,40.2497457],[-73.9911238,40.2496316],[-73.9911693,40.249547],[-73.991215,40.2494235],[-73.9912638,40.2493],[-73.9913217,40.2491491],[-73.9913587,40.2490026],[-73.9913786,40.2487461],[-73.9914217,40.2485768],[-73.9914673,40.2484739],[-73.9915398,40.2483757],[-73.9915897,40.2483026],[-73.9916445,40.2481745],[-73.9917023,40.248035],[-73.9917571,40.2479116],[-73.9918117,40.2478064],[-73.9918902,40.2477037],[-73.9919493,40.2475985],[-73.9919739,40.2475001],[-73.9921667,40.2469099],[-73.9922189,40.24672],[-73.992239,40.246633],[-73.9922364,40.246578],[-73.9922068,40.2465435],[-73.992168,40.2465342],[-73.9921442,40.2465112],[-73.9921416,40.2464676],[-73.9922311,40.2461952],[-73.9922237,40.2460751],[-73.9922163,40.2458735],[-73.992196,40.2457932],[-73.9921311,40.2456715],[-73.9920779,40.2455888],[-73.9920366,40.2455084],[-73.992031,40.2454672],[-73.9920341,40.2454465],[-73.9920582,40.2454283],[-73.9921122,40.2453988],[-73.9922414,40.24531],[-73.9923048,40.2452324],[-73.9923745,40.2451113],[-73.9925753,40.2448349],[-73.9927812,40.2444853],[-73.9928787,40.2442429],[-73.9929804,40.2440349],[-73.9930238,40.2438335],[-73.9930297,40.2437869],[-73.9930397,40.2437075],[-73.9930294,40.2436587],[-73.993018,40.2436043],[-73.9930035,40.2435424],[-73.9930068,40.2435058],[-73.9930281,40.2434578],[-73.9930829,40.2433228],[-73.9930957,40.2432054],[-73.9931021,40.2431465],[-73.9931091,40.243016],[-73.9930847,40.2428043],[-73.9930782,40.2427478],[-73.9930257,40.242578],[-73.9929873,40.2425114],[-73.9929386,40.2424264],[-73.9929388,40.2424035],[-73.992954,40.2423692],[-73.993002,40.2423397],[-73.9931101,40.2422829],[-73.9932124,40.2421894],[-73.9933422,40.2420319],[-73.9934839,40.241863],[-73.9935234,40.2417875],[-73.9935298,40.2417257],[-73.9935078,40.2416706],[-73.9935201,40.2416203],[-73.9936676,40.2410825],[-73.9938136,40.2405517],[-73.9938298,40.2403776],[-73.9938219,40.240231],[-73.9937899,40.2401209],[-73.9937617,40.240091],[-73.993738,40.2400657],[-73.9937172,40.2400449],[-73.9937055,40.2400105],[-73.9937119,40.2399487],[-73.9937422,40.239903],[-73.9937993,40.2398529],[-73.9938477,40.2397889],[-73.9939021,40.2397021],[-73.9939932,40.2395078],[-73.9941025,40.2392883],[-73.9942302,40.2390014],[-73.9942883,40.2388241],[-73.9943799,40.2384625],[-73.9943926,40.2383686],[-73.9943976,40.2382965],[-73.9943916,40.2382066],[-73.9943796,40.2382025],[-73.9940303,40.238146],[-73.9940065,40.2381344],[-73.9939947,40.2381046],[-73.9940012,40.2380427],[-73.9940792,40.2375986],[-73.9940796,40.2375459],[-73.9940784,40.2375433],[-74.0080964,40.2398395],[-74.0080669,40.2400037],[-74.0080824,40.2403224],[-74.0081026,40.2408141],[-74.008147,40.2412421],[-74.0082155,40.2416248],[-74.0082957,40.2420257],[-74.008352,40.2424629],[-74.0084334,40.2426999],[-74.0086211,40.2430376],[-74.0088507,40.2433208],[-74.0090984,40.2435585],[-74.0092054,40.2436331],[-74.0093348,40.2437233],[-74.0095264,40.2438074],[-74.0093911,40.2441255],[-74.0093021,40.2444114],[-74.0092146,40.2447465],[-74.0091788,40.24512],[-74.0091567,40.2453781],[-74.0091618,40.245571],[-74.0091984,40.2458669],[-74.0093011,40.2461096],[-74.0093911,40.2463119],[-74.0094063,40.2464163],[-74.0094484,40.2466908],[-74.009561,40.2472841],[-74.0096829,40.2484121],[-74.0094257,40.2483694],[-74.0079895,40.2481378],[-74.0062981,40.2478649],[-74.0055967,40.2477467],[-74.0038658,40.2474551],[-74.0038559,40.2475543],[-74.0037888,40.2482308],[-74.0037722,40.2486716],[-74.0037579,40.2490504],[-74.003721,40.2498414],[-74.0037187,40.2499183],[-74.0036817,40.251153],[-74.0036717,40.2514855],[-74.0036178,40.2529103],[-74.0036145,40.2529955],[-74.0034453,40.2529967],[-74.0034232,40.2529981],[-74.0032217,40.2530107],[-74.0032055,40.254612],[-74.003155,40.2557464],[-74.0031492,40.2568397],[-74.0030451,40.2568383],[-74.0030058,40.2568381],[-74.0029595,40.256839],[-74.0029185,40.2568367],[-74.0028772,40.2568286],[-74.0028102,40.2568125],[-74.0027431,40.2567924],[-74.0026233,40.2567503],[-74.0025072,40.2567236],[-74.0024111,40.2567163],[-74.0023052,40.2567119],[-74.0022251,40.256716],[-74.0021844,40.2567227],[-74.0021238,40.2567365],[-74.0020901,40.2567438],[-74.0020573,40.2567474],[-74.002005,40.2567497],[-74.0018334,40.2567501],[-74.0017928,40.2567475],[-74.0017691,40.2567419],[-74.0017446,40.2567344],[-74.0017086,40.2567195],[-74.0016695,40.256699],[-74.0016297,40.2566752],[-74.001595,40.2566558],[-74.0015562,40.2566351],[-74.0015156,40.2566209],[-74.0014834,40.2566133],[-74.0013824,40.2565989],[-74.0013613,40.256594],[-74.0013394,40.2565875],[-74.0013175,40.2565771],[-74.0012871,40.2565567],[-74.0012551,40.2565314],[-74.0012269,40.256508],[-74.0012051,40.2564921],[-74.0011769,40.2564738],[-74.001139,40.2564593],[-74.0010573,40.2564352],[-74.0009865,40.2564142],[-74.0009197,40.2563902],[-74.0008118,40.2563443],[-74.0006434,40.2562878],[-74.0005983,40.2562807],[-74.0005088,40.2562724],[-74.0003969,40.2562851],[-74.0003899,40.2563915],[-74.0003533,40.2567178],[-74.0003335,40.256875],[-74.0003165,40.2570703],[-74.0002734,40.2574275],[-74.0002334,40.2577944],[-74.00019,40.2581945],[-74.0001465,40.2586114],[-74.0000996,40.2590663],[-74.0000661,40.2594022],[-74.0000583,40.2595946],[-74.0000546,40.2596881],[-74.0000243,40.2600049],[-73.9999844,40.2603455],[-73.9999509,40.2606814],[-73.9999039,40.2611387],[-73.9998891,40.2612806],[-73.9998638,40.2615222],[-73.9998403,40.2617485],[-73.99983,40.261889],[-73.9998323,40.2619939],[-73.999844,40.2620988],[-73.9998651,40.2621966],[-74.0000146,40.2628088],[-74.0000371,40.2629023],[-74.000155,40.2633147],[-74.00017,40.2633671],[-73.9972025,40.2632409],[-73.9971922,40.2628442],[-73.9957209,40.2623773],[-73.9940436,40.2622215],[-73.9930184,40.2624276],[-73.9918784,40.26234],[-73.9878059,40.2603529]]]}}
